{"type": "FeatureCollection", "features": [ {"type": "Feature", "properties": {"norad_id": 66614, "name": "STARLINK-36040", "group": "last-30-days", "lat": -42.97252791503475, "lon": 144.86570293172667, "alt_km": 355.73546455784253, "timestamp": "2025-12-05T18:53:12.097798+00:00", "meta": {"OBJECT_NAME": "STARLINK-36040", "OBJECT_ID": "2025-270AC", "EPOCH": "2025-12-05T06:00:02.000160", "MEAN_MOTION": 15.7405875, "ECCENTRICITY": 0.0001442, "INCLINATION": 42.9989, "RA_OF_ASC_NODE": 236.984, "ARG_OF_PERICENTER": 280.0135, "MEAN_ANOMALY": 186.7594, "EPHEMERIS_TYPE": 0, "CLASSIFICATION_TYPE": "U", "NORAD_CAT_ID": 66614, "ELEMENT_SET_NO": 999, "REV_AT_EPOCH": 303, "BSTAR": -0.014809428, "MEAN_MOTION_DOT": -0.01895517, "MEAN_MOTION_DDOT": 0}, "tle": {"line1": "1 66614U 25270AC  25339.25002315 -.01895517  00000+0 -14809-1 0  9999", "line2": "2 66614  42.9989 236.9840 0001442 280.0135 186.7594 15.74058750  3036"}}, "geometry": {"type": "Point", "coordinates": [144.86570293172667, -42.97252791503475]}}, {"type": "Feature", "properties": {"norad_id": 66615, "name": "STARLINK-35988", "group": "last-30-days", "lat": -42.968490840733594, "lon": 142.25597239335963, "alt_km": 355.67049246852366, "timestamp": "2025-12-05T18:53:12.097808+00:00", "meta": {"OBJECT_NAME": "STARLINK-35988", "OBJECT_ID": "2025-270AD", "EPOCH": "2025-12-05T06:00:02.000160", "MEAN_MOTION": 15.74054195, "ECCENTRICITY": 0.0001506, "INCLINATION": 42.9989, "RA_OF_ASC_NODE": 236.9883, "ARG_OF_PERICENTER": 275.904, "MEAN_ANOMALY": 188.9528, "EPHEMERIS_TYPE": 0, "CLASSIFICATION_TYPE": "U", "NORAD_CAT_ID": 66615, "ELEMENT_SET_NO": 999, "REV_AT_EPOCH": 303, "BSTAR": -0.014755149, "MEAN_MOTION_DOT": -0.01889235, "MEAN_MOTION_DDOT": 0}, "tle": {"line1": "1 66615U 25270AD  25339.25002315 -.01889235  00000+0 -14755-1 0  9990", "line2": "2 66615  42.9989 236.9883 0001506 275.9040 188.9528 15.74054195  3033"}}, "geometry": {"type": "Point", "coordinates": [142.25597239335963, -42.968490840733594]}}, {"type": "Feature", "properties": {"norad_id": 66616, "name": "STARLINK-35391", "group": "last-30-days", "lat": -42.917036269655256, "lon": 147.47516485548732, "alt_km": 355.6544682110971, "timestamp": "2025-12-05T18:53:12.097818+00:00", "meta": {"OBJECT_NAME": "STARLINK-35391", "OBJECT_ID": "2025-270AE", "EPOCH": "2025-12-05T06:00:02.000160", "MEAN_MOTION": 15.74053516, "ECCENTRICITY": 0.00015441, "INCLINATION": 42.9989, "RA_OF_ASC_NODE": 236.9792, "ARG_OF_PERICENTER": 281.2321, "MEAN_ANOMALY": 187.4607, "EPHEMERIS_TYPE": 0, "CLASSIFICATION_TYPE": "U", "NORAD_CAT_ID": 66616, "ELEMENT_SET_NO": 999, "REV_AT_EPOCH": 330, "BSTAR": -0.014757137, "MEAN_MOTION_DOT": -0.01889441, "MEAN_MOTION_DDOT": 0}, "tle": {"line1": "1 66616U 25270AE  25339.25002315 -.01889441  00000+0 -14757-1 0  9992", "line2": "2 66616  42.9989 236.9792 0001544 281.2321 187.4607 15.74053516  3305"}}, "geometry": {"type": "Point", "coordinates": [147.47516485548732, -42.917036269655256]}}, {"type": "Feature", "properties": {"norad_id": 66617, "name": "STARLINK-35940", "group": "last-30-days", "lat": 18.830326666372514, "lon": 26.4040594614285, "alt_km": 322.59624646256907, "timestamp": "2025-12-05T18:53:12.097828+00:00", "meta": {"OBJECT_NAME": "STARLINK-35940", "OBJECT_ID": "2025-271A", "EPOCH": "2025-12-04T19:28:40.696032", "MEAN_MOTION": 15.80789565, "ECCENTRICITY": 0.00032802, "INCLINATION": 53.1571, "RA_OF_ASC_NODE": 226.1131, "ARG_OF_PERICENTER": 234.7187, "MEAN_ANOMALY": 125.3529, "EPHEMERIS_TYPE": 0, "CLASSIFICATION_TYPE": "U", "NORAD_CAT_ID": 66617, "ELEMENT_SET_NO": 999, "REV_AT_EPOCH": 296, "BSTAR": 0.0031967141, "MEAN_MOTION_DOT": 0.00679795, "MEAN_MOTION_DDOT": 0}, "tle": {"line1": "1 66617U 25271A   25338.81158213  .00679795  00000+0  31967-2 0  9993", "line2": "2 66617  53.1571 226.1131 0003280 234.7187 125.3529 15.80789565  2969"}}, "geometry": {"type": "Point", "coordinates": [26.4040594614285, 18.830326666372514]}}, {"type": "Feature", "properties": {"norad_id": 66618, "name": "STARLINK-35970", "group": "last-30-days", "lat": -20.229193406610175, "lon": 57.15717860138515, "alt_km": 345.904531774373, "timestamp": "2025-12-05T18:53:12.097840+00:00", "meta": {"OBJECT_NAME": "STARLINK-35970", "OBJECT_ID": "2025-271B", "EPOCH": "2025-12-05T04:19:07.911552", "MEAN_MOTION": 15.76026159, "ECCENTRICITY": 5.335e-05, "INCLINATION": 53.1554, "RA_OF_ASC_NODE": 224.1366, "ARG_OF_PERICENTER": 145.1653, "MEAN_ANOMALY": 214.9403, "EPHEMERIS_TYPE": 0, "CLASSIFICATION_TYPE": "U", "NORAD_CAT_ID": 66618, "ELEMENT_SET_NO": 999, "REV_AT_EPOCH": 302, "BSTAR": -0.0023737448, "MEAN_MOTION_DOT": -0.00361646, "MEAN_MOTION_DDOT": 0}, "tle": {"line1": "1 66618U 25271B   25339.17995268 -.00361646  00000+0 -23737-2 0  9994", "line2": "2 66618  53.1554 224.1366 0000533 145.1653 214.9403 15.76026159  3022"}}, "geometry": {"type": "Point", "coordinates": [57.15717860138515, -20.229193406610175]}}, {"type": "Feature", "properties": {"norad_id": 66619, "name": "STARLINK-35951", "group": "last-30-days", "lat": 17.82484412958785, "lon": 27.264659677883607, "alt_km": 332.36207953807934, "timestamp": "2025-12-05T18:53:12.097853+00:00", "meta": {"OBJECT_NAME": "STARLINK-35951", "OBJECT_ID": "2025-271C", "EPOCH": "2025-12-04T22:28:41.509920", "MEAN_MOTION": 15.79727935, "ECCENTRICITY": 1.39e-05, "INCLINATION": 53.1563, "RA_OF_ASC_NODE": 225.4695, "ARG_OF_PERICENTER": 34.7805, "MEAN_ANOMALY": 325.3226, "EPHEMERIS_TYPE": 0, "CLASSIFICATION_TYPE": "U", "NORAD_CAT_ID": 66619, "ELEMENT_SET_NO": 999, "REV_AT_EPOCH": 298, "BSTAR": -0.0031095, "MEAN_MOTION_DOT": -0.00547317, "MEAN_MOTION_DDOT": 0}, "tle": {"line1": "1 66619U 25271C   25338.93659155 -.00547317  00000+0 -31095-2 0  9997", "line2": "2 66619  53.1563 225.4695 0000139  34.7805 325.3226 15.79727935  2983"}}, "geometry": {"type": "Point", "coordinates": [27.264659677883607, 17.82484412958785]}}, {"type": "Feature", "properties": {"norad_id": 66620, "name": "STARLINK-35936", "group": "last-30-days", "lat": 23.917346280827726, "lon": 21.809008547388192, "alt_km": 332.6909258729884, "timestamp": "2025-12-05T18:53:12.097864+00:00", "meta": {"OBJECT_NAME": "STARLINK-35936", "OBJECT_ID": "2025-271D", "EPOCH": "2025-12-05T04:34:54.500448", "MEAN_MOTION": 15.78982878, "ECCENTRICITY": 4.359e-05, "INCLINATION": 53.1557, "RA_OF_ASC_NODE": 224.2119, "ARG_OF_PERICENTER": 299.2433, "MEAN_ANOMALY": 60.8545, "EPHEMERIS_TYPE": 0, "CLASSIFICATION_TYPE": "U", "NORAD_CAT_ID": 66620, "ELEMENT_SET_NO": 999, "REV_AT_EPOCH": 302, "BSTAR": -0.0029583165, "MEAN_MOTION_DOT": -0.00505786, "MEAN_MOTION_DDOT": 0}, "tle": {"line1": "1 66620U 25271D   25339.19090857 -.00505786  00000+0 -29583-2 0  9999", "line2": "2 66620  53.1557 224.2119 0000435 299.2433  60.8545 15.78982878  3029"}}, "geometry": {"type": "Point", "coordinates": [21.809008547388192, 23.917346280827726]}}, {"type": "Feature", "properties": {"norad_id": 66621, "name": "STARLINK-35847", "group": "last-30-days", "lat": -33.08517693606363, "lon": 70.32291506808853, "alt_km": 340.3617974417966, "timestamp": "2025-12-05T18:53:12.097874+00:00", "meta": {"OBJECT_NAME": "STARLINK-35847", "OBJECT_ID": "2025-271E", "EPOCH": "2025-12-04T05:29:14.400096", "MEAN_MOTION": 15.80119551, "ECCENTRICITY": 8.3e-05, "INCLINATION": 53.1563, "RA_OF_ASC_NODE": 228.8686, "ARG_OF_PERICENTER": 162.0892, "MEAN_ANOMALY": 198.016, "EPHEMERIS_TYPE": 0, "CLASSIFICATION_TYPE": "U", "NORAD_CAT_ID": 66621, "ELEMENT_SET_NO": 999, "REV_AT_EPOCH": 287, "BSTAR": -0.0041389, "MEAN_MOTION_DOT": -0.00726477, "MEAN_MOTION_DDOT": 0}, "tle": {"line1": "1 66621U 25271E   25338.22863889 -.00726477  00000+0 -41389-2 0  9996", "line2": "2 66621  53.1563 228.8686 0000830 162.0892 198.0160 15.80119551  2873"}}, "geometry": {"type": "Point", "coordinates": [70.32291506808853, -33.08517693606363]}}, {"type": "Feature", "properties": {"norad_id": 66622, "name": "STARLINK-35950", "group": "last-30-days", "lat": 16.045258062762418, "lon": 28.758296674002764, "alt_km": 335.2213014049503, "timestamp": "2025-12-05T18:53:12.097886+00:00", "meta": {"OBJECT_NAME": "STARLINK-35950", "OBJECT_ID": "2025-271F", "EPOCH": "2025-12-05T04:32:11.522400", "MEAN_MOTION": 15.78888049, "ECCENTRICITY": 8.156e-05, "INCLINATION": 53.1561, "RA_OF_ASC_NODE": 224.1992, "ARG_OF_PERICENTER": 24.5473, "MEAN_ANOMALY": 335.5588, "EPHEMERIS_TYPE": 0, "CLASSIFICATION_TYPE": "U", "NORAD_CAT_ID": 66622, "ELEMENT_SET_NO": 999, "REV_AT_EPOCH": 302, "BSTAR": -0.0043392119, "MEAN_MOTION_DOT": -0.00720349, "MEAN_MOTION_DDOT": 0}, "tle": {"line1": "1 66622U 25271F   25339.18902225 -.00720349  00000+0 -43392-2 0  9999", "line2": "2 66622  53.1561 224.1992 0000815  24.5473 335.5588 15.78888049  3023"}}, "geometry": {"type": "Point", "coordinates": [28.758296674002764, 16.045258062762418]}}, {"type": "Feature", "properties": {"norad_id": 66623, "name": "STARLINK-35920", "group": "last-30-days", "lat": 7.091352982032804, "lon": 35.835031858995265, "alt_km": 329.5949803067115, "timestamp": "2025-12-05T18:53:12.097896+00:00", "meta": {"OBJECT_NAME": "STARLINK-35920", "OBJECT_ID": "2025-271G", "EPOCH": "2025-12-04T10:18:25.884864", "MEAN_MOTION": 15.81474448, "ECCENTRICITY": 0.000142, "INCLINATION": 53.1567, "RA_OF_ASC_NODE": 227.9949, "ARG_OF_PERICENTER": 2.2541, "MEAN_ANOMALY": 357.8488, "EPHEMERIS_TYPE": 0, "CLASSIFICATION_TYPE": "U", "NORAD_CAT_ID": 66623, "ELEMENT_SET_NO": 999, "REV_AT_EPOCH": 290, "BSTAR": -0.001618, "MEAN_MOTION_DOT": -0.00317341, "MEAN_MOTION_DDOT": 0}, "tle": {"line1": "1 66623U 25271G   25338.42946626 -.00317341  00000+0 -16180-2 0  9998", "line2": "2 66623  53.1567 227.9949 0001420   2.2541 357.8488 15.81474448  2905"}}, "geometry": {"type": "Point", "coordinates": [35.835031858995265, 7.091352982032804]}}]}